{
  "norad_id": 65093,
  "name": "STARLINK-34266",
  "history": [
    {
      "epoch": "2026-03-28T20:45:58.896864Z",
      "apogee_km": 475.9565862014251,
      "perigee_km": 474.5086062731325,
      "latitude_deg": 4.363532292927315e-06,
      "longitude_deg": 159.96131962793302,
      "height_km": 476.04841719528406,
      "semi_major_axis_km": 6853.3695962372785,
      "eccentricity": 0.00010564,
      "inclination_deg": 53.1586,
      "raan_deg": 297.7363,
      "arg_perigee_deg": 83.4647,
      "mean_anomaly_deg": 276.6474,
      "mean_motion_rev_day": 15.3019413
    },
    {
      "epoch": "2026-03-30T00:58:56.495424Z",
      "apogee_km": 475.9415585493589,
      "perigee_km": 474.4368422487996,
      "latitude_deg": 6.677751643615385e-06,
      "longitude_deg": 90.10263792736579,
      "height_km": 476.2076790054872,
      "semi_major_axis_km": 6853.3262003990785,
      "eccentricity": 0.00010978,
      "inclination_deg": 53.1586,
      "raan_deg": 292.2764,
      "arg_perigee_deg": 99.201,
      "mean_anomaly_deg": 260.9115,
      "mean_motion_rev_day": 15.30208664
    },
    {
      "epoch": "2026-03-30T19:47:35.132352Z",
      "apogee_km": 475.9776777122879,
      "perigee_km": 474.3694798518709,
      "latitude_deg": -1.4678088007819213e-05,
      "longitude_deg": 163.5280063892642,
      "height_km": 476.16999696376115,
      "semi_major_axis_km": 6853.31057878208,
      "eccentricity": 0.00011733,
      "inclination_deg": 53.1591,
      "raan_deg": 288.6353,
      "arg_perigee_deg": 97.0212,
      "mean_anomaly_deg": 263.0922,
      "mean_motion_rev_day": 15.30213896
    }
  ]
}